PLEIADES NEO 3          
1 48268U 21034A   26195.94145521 -.00000700  00000+0 -82384-4 0  9999
2 48268  97.8946 270.3085 0001305  92.8825 267.2538 14.81665400281763
PLEIADES NEO 4          
1 49070U 21073E   26195.90768476  .00000878  00000+0  11821-3 0  9991
2 49070  97.8945 270.2713 0001352  92.9900 267.1468 14.81673026265472
